TIANMU-1 21             
1 58662U 23208C   26157.81736428  .00011948  00000+0  35509-3 0  9999
2 58662  97.4494 277.3270 0006811   5.7076 354.4244 15.34892736135974
TIANMU-1 22             
1 58663U 23208D   26157.74593479  .00009321  00000+0  31454-3 0  9996
2 58663  97.4489 273.9393 0004188  38.7843 321.3698 15.30911457135738
TIANMU-1 15             
1 58700U 24004A   26157.87577550  .00006760  00000+0  25836-3 0  9990
2 58700  97.4674 344.0649 0007705  36.8043 323.3723 15.26916169134201
TIANMU-1 16             
1 58701U 24004B   26157.60097266  .00008203  00000+0  31551-3 0  9998
2 58701  97.4620 343.0390 0006811  42.2242 317.9519 15.26640801134168
TIANMU-1 17             
1 58702U 24004C   26157.84860345  .00007420  00000+0  28567-3 0  9994
2 58702  97.4649 343.7675 0006493  46.7583 313.4197 15.26642860134199
TIANMU-1 18             
1 58703U 24004D   26157.82673812  .00006467  00000+0  24750-3 0  9994
2 58703  97.4665 343.9945 0004967  46.1902 313.9747 15.26900332134190
INSAT-3DS               
1 58990U 24033A   26157.79147226 -.00000143  00000+0  00000+0 0  9999
2 58990   0.0055 267.3022 0001336 165.6060 189.2991  1.00273516 46961
METEOR-M2 4             
1 59051U 24039A   26157.84314958  .00000025  00000+0  31106-4 0  9992
2 59051  98.7006 117.2715 0006676 190.9065 169.1969 14.22428504117799
GOES 19                 
1 60133U 24119A   26157.61774372 -.00000235  00000+0  00000+0 0  9997
2 60133   0.0379 148.3333 0000664 350.4093 263.4884  1.00270677  6853
MTG-S1                  
1 64723U 25143A   26157.77457700 -.00000018  00000+0  00000+0 0  9993
2 64723   0.6126 336.6189 0001104  33.3361 160.6048  1.00271640  3313
METOP-SGA1              
1 65159U 25172A   26157.58062183  .00000053  00000+0  43950-4 0  9999
2 65159  98.6647 217.5016 0000966  87.5792 272.5496 14.21508095 42285
FENGYUN 3H              
1 65815U 25219A   26157.54158358  .00000072  00000+0  54097-4 0  9991
2 65815  98.6765  98.5178 0001629  85.5754 274.5608 14.19918605 35877
