OBJECT_NAME,OBJECT_ID,EPOCH,MEAN_MOTION,ECCENTRICITY,INCLINATION,RA_OF_ASC_NODE,ARG_OF_PERICENTER,MEAN_ANOMALY,EPHEMERIS_TYPE,CLASSIFICATION_TYPE,NORAD_CAT_ID,ELEMENT_SET_NO,REV_AT_EPOCH,BSTAR,MEAN_MOTION_DOT,MEAN_MOTION_DDOT
TIANMU-1 21,2023-208C,2026-06-06T19:37:00.273792,15.34892736,.0006811,97.4494,277.3270,5.7076,354.4244,0,U,58662,999,13597,.35509E-3,.11948E-3,0
TIANMU-1 22,2023-208D,2026-06-06T17:54:08.765856,15.30911457,.0004188,97.4489,273.9393,38.7843,321.3698,0,U,58663,999,13573,.31454E-3,.9321E-4,0
TIANMU-1 15,2024-004A,2026-06-06T21:01:07.003200,15.26916169,.0007705,97.4674,344.0649,36.8043,323.3723,0,U,58700,999,13420,.25836E-3,.676E-4,0
TIANMU-1 16,2024-004B,2026-06-06T14:25:24.037824,15.26640801,.0006811,97.4620,343.0390,42.2242,317.9519,0,U,58701,999,13416,.31551E-3,.8203E-4,0
TIANMU-1 17,2024-004C,2026-06-06T20:21:59.338080,15.26642860,.0006493,97.4649,343.7675,46.7583,313.4197,0,U,58702,999,13419,.28567E-3,.742E-4,0
TIANMU-1 18,2024-004D,2026-06-06T19:50:30.173568,15.26900332,.0004967,97.4665,343.9945,46.1902,313.9747,0,U,58703,999,13419,.2475E-3,.6467E-4,0
INSAT-3DS,2024-033A,2026-06-06T18:59:43.203264,1.00273516,.0001336,0.0055,267.3022,165.6060,189.2991,0,U,58990,999,4696,0,-.143E-5,0
METEOR-M2 4,2024-039A,2026-06-06T20:14:08.123712,14.22428504,.0006676,98.7006,117.2715,190.9065,169.1969,0,U,59051,999,11779,.31106E-4,.25E-6,0
GOES 19,2024-119A,2026-06-06T14:49:33.057408,1.00270677,.0000664,0.0379,148.3333,350.4093,263.4884,0,U,60133,999,685,0,-.235E-5,0
MTG-S1,2025-143A,2026-06-06T18:35:23.452800,1.00271640,.0001104,0.6126,336.6189,33.3361,160.6048,0,U,64723,999,331,0,-.18E-6,0
METOP-SGA1,2025-172A,2026-06-06T13:56:05.726112,14.21508095,.0000966,98.6647,217.5016,87.5792,272.5496,0,U,65159,999,4228,.4395E-4,.53E-6,0
FENGYUN 3H,2025-219A,2026-06-06T12:59:52.821312,14.19918605,.0001629,98.6765,98.5178,85.5754,274.5608,0,U,65815,999,3587,.54097E-4,.72E-6,0
